{"scheme_id":"pmjay","name_hi":"आयुष्मान भारत (PM-JAY)","summary_hi":"गरीब और वंचित परिवारों को प्रति वर्ष ₹5 लाख तक का स्वास्थ्य बीमा कवर।","benefits_hi":"कैशलेस इलाज, सूचीबद्ध अस्पतालों में उपचार।","eligibility":{"max_income":null,"category_any":true,"min_age":0,"state_any":true},"documents_hi":["आधार","राशन कार्ड/परिवार पहचान"],"apply_hi":"निकटतम CSC/अस्पताल डेस्क पर सत्यापन करके कार्ड बनवाएँ।"}
{"scheme_id":"pmkisan","name_hi":"PM-KISAN","summary_hi":"पात्र किसान परिवारों को सालाना ₹6000 (₹2000 की 3 किस्त) सहायता।","benefits_hi":"Direct Benefit Transfer (DBT) से बैंक खाते में राशि।","eligibility":{"occupation":"farmer","state_any":true},"documents_hi":["आधार","बैंक पासबुक","भूमि दस्तावेज"],"apply_hi":"pmkisan पोर्टल/CSC के माध्यम से पंजीकरण।"}
{"scheme_id":"pmuy","name_hi":"प्रधानमंत्री उज्ज्वला योजना (PMUY)","summary_hi":"BPL परिवारों की महिलाओं को LPG कनेक्शन और सहायता।","benefits_hi":"गैस कनेक्शन/सब्सिडी सहायता।","eligibility":{"gender":"female","category_any":true,"state_any":true},"documents_hi":["आधार","BPL/राशन कार्ड","बैंक खाता"],"apply_hi":"नजदीकी LPG वितरक/CSC पर आवेदन।"}
{"scheme_id":"pmavasy","name_hi":"प्रधानमंत्री आवास योजना (PMAY)","summary_hi":"पात्र परिवारों को घर बनाने/खरीदने हेतु सहायता।","benefits_hi":"सब्सिडी/आर्थिक सहायता (शहरी/ग्रामीण)।","eligibility":{"state_any":true},"documents_hi":["आधार","आय प्रमाण","भूमि/स्वामित्व दस्तावेज"],"apply_hi":"स्थानीय निकाय/पंचायत/PMAY पोर्टल के माध्यम से।"}
{"scheme_id":"nsp","name_hi":"नेशनल स्कॉलरशिप पोर्टल (NSP)","summary_hi":"छात्रों के लिए विभिन्न छात्रवृत्तियाँ (केंद्र/राज्य/UGC)।","benefits_hi":"शिक्षा खर्च हेतु छात्रवृत्ति सहायता।","eligibility":{"is_student":true,"state_any":true},"documents_hi":["आधार","बोनाफाइड","मार्कशीट","बैंक पासबुक"],"apply_hi":"NSP पोर्टल पर स्कॉलरशिप चुनकर आवेदन।"}
{"scheme_id":"pmsby","name_hi":"प्रधानमंत्री सुरक्षा बीमा योजना (PMSBY)","summary_hi":"₹2 लाख तक दुर्घटना बीमा, बहुत कम वार्षिक प्रीमियम।","benefits_hi":"दुर्घटना मृत्यु/विकलांगता पर कवर।","eligibility":{"min_age":18,"max_age":70,"state_any":true},"documents_hi":["आधार","बैंक खाता"],"apply_hi":"बैंक/नेटबैंकिंग के माध्यम से नामांकन।"}
{"scheme_id":"atal_pension","name_hi":"अटल पेंशन योजना (APY)","summary_hi":"असंगठित क्षेत्र के लिए वृद्धावस्था पेंशन योजना।","benefits_hi":"60 के बाद तय मासिक पेंशन।","eligibility":{"min_age":18,"max_age":40,"state_any":true},"documents_hi":["आधार","बैंक खाता"],"apply_hi":"बैंक में APY फॉर्म भरकर।"}
{"scheme_id":"jan_dhan","name_hi":"प्रधानमंत्री जन-धन योजना (PMJDY)","summary_hi":"बैंक खाता, RuPay कार्ड और बेसिक बीमा/ओवरड्राफ्ट सुविधाएँ।","benefits_hi":"Financial inclusion, DBT के लिए खाता।","eligibility":{"state_any":true},"documents_hi":["आधार/ID प्रूफ"],"apply_hi":"नजदीकी बैंक में खाता खोलें।"}
{"scheme_id":"skill_india","name_hi":"स्किल इंडिया/PMKVY","summary_hi":"युवाओं के लिए कौशल प्रशिक्षण और प्रमाणन।","benefits_hi":"फ्री/सब्सिडी ट्रेनिंग, जॉब लिंकिंग।","eligibility":{"min_age":15,"state_any":true},"documents_hi":["आधार","फोटो"],"apply_hi":"PMKVY सेंटर/पोर्टल के माध्यम से।"}
{"scheme_id":"old_age","name_hi":"वृद्धावस्था पेंशन (राज्य योजना)","summary_hi":"पात्र वरिष्ठ नागरिकों को मासिक पेंशन (राज्य के अनुसार)।","benefits_hi":"मासिक आर्थिक सहायता।","eligibility":{"min_age":60,"state_any":true},"documents_hi":["आधार","आय प्रमाण"],"apply_hi":"ब्लॉक/नगर निकाय/जन सेवा केंद्र पर।"}
